NORAD_CAT_ID,OBJECT_NAME,OBJECT_TYPE,EPOCH,MEAN_MOTION,ECCENTRICITY,INCLINATION,RA_OF_ASC_NODE,ARG_OF_PERICENTER,MEAN_ANOMALY,BSTAR,MEAN_MOTION_DOT,MEAN_MOTION_DDOT,TLE_LINE0,TLE_LINE1,TLE_LINE2,SEMIMAJOR_AXIS,PERIOD,APOGEE,PERIGEE,DECAYED
53886.0,STARLINK-5028,PAYLOAD,2024-03-06 02:18:36,15.08845376,0.0001214,53.2179,17.5782,88.5528,271.5603,-5.1138e-06,-3.69e-06,0.0,0 STARLINK-5028,1 53886U 22119A   24066.09626110 -.00000369  00000-0 -51138-5 0  9991,2 53886  53.2179  17.5782 0001214  88.5528 271.5603 15.08845376 80518,6917.864,95.437,540.569,538.889,0.0
53886.0,STARLINK-5028,PAYLOAD,2024-03-07 03:44:47,15.08836115,0.0001127,53.2179,12.8203,69.1253,290.986,8.3992e-05,1.049e-05,0.0,0 STARLINK-5028,1 53886U 22119A   24067.15610738  .00001049  00000-0  83992-4 0  9994,2 53886  53.2179  12.8203 0001127  69.1253 290.9860 15.08836115 80675,6917.892,95.438,540.537,538.978,0.0
53886.0,STARLINK-5028,PAYLOAD,2024-03-07 13:17:06,15.08832344,0.0001244,53.2192,11.0367,81.548,278.5653,4.4897e-05,4.27e-06,0.0,0 STARLINK-5028,1 53886U 22119A   24067.55355246  .00000427  00000-0  44897-4 0  9998,2 53886  53.2192  11.0367 0001244  81.5480 278.5653 15.08832344 81158,6917.904,95.438,540.629,538.908,0.0
53886.0,STARLINK-5028,PAYLOAD,2024-03-08 05:10:57,15.08844382,0.0001441,53.219,8.0588,90.7455,269.3702,9.9289e-05,1.293e-05,0.0,0 STARLINK-5028,1 53886U 22119A   24068.21594503  .00001293  00000-0  99289-4 0  9990,2 53886  53.2190   8.0588 0001441  90.7455 269.3702 15.08844382 80832,6917.867,95.437,540.729,538.735,0.0
53886.0,STARLINK-5028,PAYLOAD,2024-03-08 13:07:53,15.08837239,0.0001354,53.2186,6.5734,90.0303,270.0845,7.2256e-05,8.62e-06,0.0,0 STARLINK-5028,1 53886U 22119A   24068.54715064  .00000862  00000-0  72256-4 0  9999,2 53886  53.2186   6.5734 0001354  90.0303 270.0845 15.08837239 81304,6917.889,95.438,540.691,538.817,0.0
53886.0,STARLINK-5028,PAYLOAD,2024-03-09 03:26:21,15.08846755,0.0001298,53.2191,3.9011,84.5014,275.6126,0.00011473,1.539e-05,0.0,0 STARLINK-5028,1 53886U 22119A   24069.14330338  .00001539  00000-0  11473-3 0  9998,2 53886  53.2191   3.9011 0001298  84.5014 275.6126 15.08846755 80971,6917.86,95.437,540.623,538.827,0.0
53886.0,STARLINK-5028,PAYLOAD,2024-03-09 12:58:40,15.08842275,0.0001247,53.2204,2.1142,99.6364,260.4769,0.00012306,1.671e-05,0.0,0 STARLINK-5028,1 53886U 22119A   24069.54074409  .00001671  00000-0  12306-3 0  9999,2 53886  53.2204   2.1142 0001247  99.6364 260.4769 15.08842275 81453,6917.873,95.437,540.601,538.876,0.0
53886.0,STARLINK-5028,PAYLOAD,2024-03-10 01:41:45,15.08843964,0.0001353,53.2192,359.7362,96.7395,263.3751,9.4903e-05,1.223e-05,0.0,0 STARLINK-5028,1 53886U 22119A   24070.07066344  .00001223  00000-0  94903-4 0  9995,2 53886  53.2192 359.7362 0001353  96.7395 263.3751 15.08843964 81116,6917.868,95.437,540.669,538.797,0.0
53886.0,STARLINK-5028,PAYLOAD,2024-03-10 12:49:27,15.08841163,0.0001522,53.2181,357.6537,97.0549,263.0617,1.7341e-05,-1.2e-07,0.0,0 STARLINK-5028,1 53886U 22119A   24070.53434629 -.00000012  00000-0  17341-4 0  9998,2 53886  53.2181 357.6537 0001522  97.0549 263.0617 15.08841163 81609,6917.877,95.437,540.795,538.689,0.0
53886.0,STARLINK-5028,PAYLOAD,2024-03-10 19:11:00,15.08833731,0.0001296,53.2174,356.4645,101.0407,259.0731,-4.4585e-05,-9.97e-06,0.0,0 STARLINK-5028,1 53886U 22119A   24070.79931188 -.00000997  00000-0 -44585-4 0  9991,2 53886  53.2174 356.4645 0001296 101.0407 259.0731 15.08833731 81227,6917.9,95.438,540.661,538.868,0.0
53886.0,STARLINK-5028,PAYLOAD,2024-03-11 01:32:33,15.08832897,0.0001233,53.2173,355.2767,90.1334,269.9799,-1.2288e-05,-4.83e-06,0.0,0 STARLINK-5028,1 53886U 22119A   24071.06427173 -.00000483  00000-0 -12288-4 0  9991,2 53886  53.2173 355.2767 0001233  90.1334 269.9799 15.08832897 81682,6917.902,95.438,540.62,538.914,0.0
53886.0,STARLINK-5028,PAYLOAD,2024-03-12 04:34:06,15.0881568,0.0001593,53.2183,350.2199,91.0737,269.0437,0.00040544,6.166e-05,0.0,0 STARLINK-5028,1 53886U 22119A   24072.19035249  .00006166  00000-0  40544-3 0  9992,2 53886  53.2183 350.2199 0001593  91.0737 269.0437 15.08815680 81437,6917.955,95.439,540.922,538.718,0.0
53886.0,STARLINK-5028,PAYLOAD,2024-03-12 10:55:38,15.08836359,0.0001405,53.2183,349.0312,90.2903,269.8251,0.00015073,2.112e-05,0.0,0 STARLINK-5028,1 53886U 22119A   24072.45530738  .00002112  00000-0  15073-3 0  9990,2 53886  53.2183 349.0312 0001405  90.2903 269.8251 15.08836359 81470,6917.892,95.438,540.728,538.785,0.0
53886.0,STARLINK-5028,PAYLOAD,2024-03-13 04:24:53,15.08834628,0.0001543,53.2187,345.7594,83.906,276.2108,8.3329e-05,1.038e-05,0.0,0 STARLINK-5028,1 53886U 22119A   24073.18395407  .00001038  00000-0  83329-4 0  9999,2 53886  53.2187 345.7594 0001543  83.9060 276.2108 15.08834628 81587,6917.897,95.438,540.829,538.694,0.0
53886.0,STARLINK-5028,PAYLOAD,2024-03-13 10:46:26,15.08837254,0.0001502,53.2185,344.5696,82.5309,277.5854,4.319e-05,3.99e-06,0.0,0 STARLINK-5028,1 53886U 22119A   24073.44891354  .00000399  00000-0  43190-4 0  9991,2 53886  53.2185 344.5696 0001502  82.5309 277.5854 15.08837254 82043,6917.889,95.438,540.793,538.715,0.0
53886.0,STARLINK-5028,PAYLOAD,2024-03-13 21:54:08,15.08834689,0.0001491,53.2193,342.4883,84.3308,275.7854,3.3242e-05,2.41e-06,0.0,0 STARLINK-5028,1 53886U 22119A   24073.91259720  .00000241  00000-0  33242-4 0  9991,2 53886  53.2193 342.4883 0001491  84.3308 275.7854 15.08834689 82110,6917.897,95.438,540.793,538.73,0.0
53886.0,STARLINK-5028,PAYLOAD,2024-03-14 02:40:17,15.08842846,0.0001553,53.2198,341.5969,96.5025,263.6144,5.9726e-05,6.63e-06,0.0,0 STARLINK-5028,1 53886U 22119A   24074.11131193  .00000663  00000-0  59726-4 0  9990,2 53886  53.2198 341.5969 0001553  96.5025 263.6144 15.08842846 82145,6917.872,95.437,540.811,538.662,0.0
53886.0,STARLINK-5028,PAYLOAD,2024-03-14 21:44:55,15.08834153,0.0001615,53.2192,338.0261,69.6324,290.4841,7.905e-05,9.7e-06,0.0,0 STARLINK-5028,1 53886U 22119A   24074.90619770  .00000970  00000-0  79050-4 0  9992,2 53886  53.2192 338.0261 0001615  69.6324 290.4841 15.08834153 82264,6917.898,95.438,540.881,538.646,0.0
53886.0,STARLINK-5028,PAYLOAD,2024-03-15 02:31:04,15.08843084,0.0001486,53.219,337.1359,77.3552,282.7607,0.00010127,1.324e-05,0.0,0 STARLINK-5028,1 53886U 22119A   24075.10491158  .00001324  00000-0  10127-3 0  9996,2 53886  53.2190 337.1359 0001486  77.3552 282.7607 15.08843084 81878,6917.871,95.437,540.764,538.708,0.0
53886.0,STARLINK-5028,PAYLOAD,2024-03-15 16:49:32,15.08835438,0.0001041,53.2173,334.4647,97.6991,262.4119,0.00011768,1.585e-05,0.0,0 STARLINK-5028,1 53886U 22119A   24075.70107503  .00001585  00000-0  11768-3 0  9991,2 53886  53.2173 334.4647 0001041  97.6991 262.4119 15.08835438 81965,6917.894,95.438,540.479,539.039,0.0
53886.0,STARLINK-5028,PAYLOAD,2024-03-16 00:46:28,15.08846064,0.0001532,53.2175,332.9786,72.4051,287.7108,1.8901e-05,1.3e-07,0.0,0 STARLINK-5028,1 53886U 22119A   24076.03227286  .00000013  00000-0  18901-4 0  9991,2 53886  53.2175 332.9786 0001532  72.4051 287.7108 15.08846064 82019,6917.862,95.437,540.787,538.667,0.0
53886.0,STARLINK-5028,PAYLOAD,2024-03-16 16:40:20,15.08841051,0.0001627,53.2175,330.0055,70.2057,289.911,3.4608e-05,2.63e-06,0.0,0 STARLINK-5028,1 53886U 22119A   24076.69467628  .00000263  00000-0  34608-4 0  9998,2 53886  53.2175 330.0055 0001627  70.2057 289.9110 15.08841051 82113,6917.877,95.437,540.868,538.617,0.0
53886.0,STARLINK-5028,PAYLOAD,2024-03-16 21:26:29,15.08839073,0.0001457,53.217,329.1118,80.6379,279.4778,-3.6644e-06,-3.46e-06,0.0,0 STARLINK-5028,1 53886U 22119A   24076.89339816 -.00000346  00000-0 -36644-5 0  9994,2 53886  53.2170 329.1118 0001457  80.6379 279.4778 15.08839073 82564,6917.883,95.438,540.756,538.74,0.0
53886.0,STARLINK-5028,PAYLOAD,2024-03-16 23:01:52,15.08838532,0.0001483,53.218,328.8151,79.3318,280.7841,-2.2021e-06,-3.23e-06,0.0,0 STARLINK-5028,1 53886U 22119A   24076.95963861 -.00000323  00000-0 -22021-5 0  9993,2 53886  53.2180 328.8151 0001483  79.3318 280.7841 15.08838532 82571,6917.885,95.438,540.776,538.724,0.0
53886.0,STARLINK-5028,PAYLOAD,2024-03-17 19:41:52,15.08843515,0.0001421,53.2177,324.9483,92.5564,267.559,4.4554e-05,4.21e-06,0.0,0 STARLINK-5028,1 53886U 22119A   24077.82075209  .00000421  00000-0  44554-4 0  9991,2 53886  53.2177 324.9483 0001421  92.5564 267.5590 15.08843515 82283,6917.87,95.437,540.718,538.752,0.0
53886.0,STARLINK-5028,PAYLOAD,2024-03-17 21:17:16,15.088444,0.0001479,53.2181,324.6514,88.0962,272.0199,5.1985e-05,5.4e-06,0.0,0 STARLINK-5028,1 53886U 22119A   24077.88699154  .00000540  00000-0  51985-4 0  9996,2 53886  53.2181 324.6514 0001479  88.0962 272.0199 15.08844400 82713,6917.867,95.437,540.755,538.709,0.0
53886.0,STARLINK-5028,PAYLOAD,2024-03-18 02:03:25,15.08849597,0.0001421,53.2173,323.7577,93.0382,267.0773,8.3732e-05,1.045e-05,0.0,0 STARLINK-5028,1 53886U 22119A   24078.08570608  .00001045  00000-0  83732-4 0  9997,2 53886  53.2173 323.7577 0001421  93.0382 267.0773 15.08849597 82323,6917.851,95.437,540.699,538.733,0.0
53886.0,STARLINK-5028,PAYLOAD,2024-03-18 21:08:03,15.08837132,0.000159,53.2182,320.1856,121.0607,239.0542,-3.0398e-05,-7.72e-06,0.0,0 STARLINK-5028,1 53886U 22119A   24078.88059663 -.00000772  00000-0 -30398-4 0  9996,2 53886  53.2182 320.1856 0001590 121.0607 239.0542 15.08837132 82441,6917.889,95.438,540.854,538.654,0.0
53886.0,STARLINK-5028,PAYLOAD,2024-03-19 01:54:13,15.08829663,0.0001219,53.2177,319.293,110.0006,250.1117,8.4977e-05,1.064e-05,0.0,0 STARLINK-5028,1 53886U 22119A   24079.07931882  .00001064  00000-0  84977-4 0  9995,2 53886  53.2177 319.2930 0001219 110.0006 250.1117 15.08829663 82897,6917.912,95.438,540.62,538.934,0.0
53886.0,STARLINK-5028,PAYLOAD,2024-03-19 20:58:49,15.08850353,0.0001234,53.2183,315.7269,89.5856,270.5277,3.4599e-05,2.63e-06,0.0,0 STARLINK-5028,1 53886U 22119A   24079.87418698  .00000263  00000-0  34599-4 0  9993,2 53886  53.2183 315.7269 0001234  89.5856 270.5277 15.08850353 82590,6917.849,95.437,540.567,538.86,0.0
